[{"OBJECT_NAME":"GPS BIIF-7  (PRN 09)","OBJECT_ID":"2014-045A","EPOCH":"2026-03-02T20:26:10.464864","MEAN_MOTION":2.00551356,"ECCENTRICITY":0.0031535,"INCLINATION":55.28,"RA_OF_ASC_NODE":92.7002,"ARG_OF_PERICENTER":120.5034,"MEAN_ANOMALY":239.8806,"EPHEMERIS_TYPE":0,"CLASSIFICATION_TYPE":"U","NORAD_CAT_ID":40105,"ELEMENT_SET_NO":999,"REV_AT_EPOCH":8394,"BSTAR":0,"MEAN_MOTION_DOT":1.9e-7,"MEAN_MOTION_DDOT":0},{"OBJECT_NAME":"GPS BIIF-8  (PRN 03)","OBJECT_ID":"2014-068A","EPOCH":"2026-03-02T17:30:51.620832","MEAN_MOTION":2.00569705,"ECCENTRICITY":0.0062729,"INCLINATION":56.9183,"RA_OF_ASC_NODE":35.0563,"ARG_OF_PERICENTER":68.0429,"MEAN_ANOMALY":292.6114,"EPHEMERIS_TYPE":0,"CLASSIFICATION_TYPE":"U","NORAD_CAT_ID":40294,"ELEMENT_SET_NO":999,"REV_AT_EPOCH":8307,"BSTAR":0,"MEAN_MOTION_DOT":-7.2e-7,"MEAN_MOTION_DDOT":0},{"OBJECT_NAME":"GPS BIIF-9  (PRN 26)","OBJECT_ID":"2015-013A","EPOCH":"2026-03-02T08:41:54.930048","MEAN_MOTION":2.00557677,"ECCENTRICITY":0.0108729,"INCLINATION":53.1867,"RA_OF_ASC_NODE":208.5939,"ARG_OF_PERICENTER":39.7757,"MEAN_ANOMALY":320.9603,"EPHEMERIS_TYPE":0,"CLASSIFICATION_TYPE":"U","NORAD_CAT_ID":40534,"ELEMENT_SET_NO":999,"REV_AT_EPOCH":7968,"BSTAR":0,"MEAN_MOTION_DOT":-1.5e-7,"MEAN_MOTION_DDOT":0},{"OBJECT_NAME":"GPS BIIF-10 (PRN 08)","OBJECT_ID":"2015-033A","EPOCH":"2026-03-02T12:33:09.231264","MEAN_MOTION":2.00561632,"ECCENTRICITY":0.01144532,"INCLINATION":54.0659,"RA_OF_ASC_NODE":271.4826,"ARG_OF_PERICENTER":28.9403,"MEAN_ANOMALY":331.7281,"EPHEMERIS_TYPE":0,"CLASSIFICATION_TYPE":"U","NORAD_CAT_ID":40730,"ELEMENT_SET_NO":999,"REV_AT_EPOCH":7785,"BSTAR":0,"MEAN_MOTION_DOT":1.0e-8,"MEAN_MOTION_DDOT":0},{"OBJECT_NAME":"GPS BIIF-11 (PRN 10)","OBJECT_ID":"2015-062A","EPOCH":"2026-03-02T13:57:52.710048","MEAN_MOTION":2.00567039,"ECCENTRICITY":0.01114583,"INCLINATION":56.8916,"RA_OF_ASC_NODE":34.9181,"ARG_OF_PERICENTER":231.482,"MEAN_ANOMALY":127.5052,"EPHEMERIS_TYPE":0,"CLASSIFICATION_TYPE":"U","NORAD_CAT_ID":41019,"ELEMENT_SET_NO":999,"REV_AT_EPOCH":7569,"BSTAR":0,"MEAN_MOTION_DOT":-7.1e-7,"MEAN_MOTION_DDOT":0},{"OBJECT_NAME":"GPS BIIF-12 (PRN 32)","OBJECT_ID":"2016-007A","EPOCH":"2026-03-03T03:58:40.941696","MEAN_MOTION":2.00556827,"ECCENTRICITY":0.0095403,"INCLINATION":55.4547,"RA_OF_ASC_NODE":93.6619,"ARG_OF_PERICENTER":245.9731,"MEAN_ANOMALY":113.0958,"EPHEMERIS_TYPE":0,"CLASSIFICATION_TYPE":"U","NORAD_CAT_ID":41328,"ELEMENT_SET_NO":999,"REV_AT_EPOCH":7371,"BSTAR":0,"MEAN_MOTION_DOT":1.8e-7,"MEAN_MOTION_DDOT":0},{"OBJECT_NAME":"GPS BIII-1  (PRN 04)","OBJECT_ID":"2018-109A","EPOCH":"2026-03-02T13:20:28.827744","MEAN_MOTION":2.00556616,"ECCENTRICITY":0.0037879,"INCLINATION":55.6138,"RA_OF_ASC_NODE":96.3922,"ARG_OF_PERICENTER":198.2365,"MEAN_ANOMALY":334.0151,"EPHEMERIS_TYPE":0,"CLASSIFICATION_TYPE":"U","NORAD_CAT_ID":43873,"ELEMENT_SET_NO":999,"REV_AT_EPOCH":5293,"BSTAR":0,"MEAN_MOTION_DOT":2.2e-7,"MEAN_MOTION_DDOT":0},{"OBJECT_NAME":"GPS BIII-2  (PRN 18)","OBJECT_ID":"2019-056A","EPOCH":"2026-03-03T04:35:28.841856","MEAN_MOTION":2.00568213,"ECCENTRICITY":0.0058023,"INCLINATION":55.6853,"RA_OF_ASC_NODE":335.3576,"ARG_OF_PERICENTER":198.177,"MEAN_ANOMALY":333.1087,"EPHEMERIS_TYPE":0,"CLASSIFICATION_TYPE":"U","NORAD_CAT_ID":44506,"ELEMENT_SET_NO":999,"REV_AT_EPOCH":4794,"BSTAR":0,"MEAN_MOTION_DOT":-9.8e-7,"MEAN_MOTION_DDOT":0},{"OBJECT_NAME":"GPS BIII-3  (PRN 23)","OBJECT_ID":"2020-041A","EPOCH":"2026-03-02T05:22:22.585728","MEAN_MOTION":2.00560558,"ECCENTRICITY":0.0061351,"INCLINATION":56.6045,"RA_OF_ASC_NODE":33.0935,"ARG_OF_PERICENTER":205.2559,"MEAN_ANOMALY":289.6941,"EPHEMERIS_TYPE":0,"CLASSIFICATION_TYPE":"U","NORAD_CAT_ID":45854,"ELEMENT_SET_NO":999,"REV_AT_EPOCH":4189,"BSTAR":0,"MEAN_MOTION_DOT":-7.3e-7,"MEAN_MOTION_DDOT":0},{"OBJECT_NAME":"GPS BIII-4  (PRN 14)","OBJECT_ID":"2020-078A","EPOCH":"2026-03-02T19:23:28.671936","MEAN_MOTION":2.00565488,"ECCENTRICITY":0.00681491,"INCLINATION":54.002,"RA_OF_ASC_NODE":215.0904,"ARG_OF_PERICENTER":204.2599,"MEAN_ANOMALY":325.6195,"EPHEMERIS_TYPE":0,"CLASSIFICATION_TYPE":"U","NORAD_CAT_ID":46826,"ELEMENT_SET_NO":999,"REV_AT_EPOCH":3937,"BSTAR":0,"MEAN_MOTION_DOT":-1.0e-7,"MEAN_MOTION_DDOT":0},{"OBJECT_NAME":"GPS BIII-5  (PRN 11)","OBJECT_ID":"2021-054A","EPOCH":"2026-03-02T19:53:35.422080","MEAN_MOTION":2.00575571,"ECCENTRICITY":0.00238809,"INCLINATION":55.2217,"RA_OF_ASC_NODE":336.7372,"ARG_OF_PERICENTER":232.101,"MEAN_ANOMALY":137.0822,"EPHEMERIS_TYPE":0,"CLASSIFICATION_TYPE":"U","NORAD_CAT_ID":48859,"ELEMENT_SET_NO":999,"REV_AT_EPOCH":3462,"BSTAR":0,"MEAN_MOTION_DOT":-1.0e-6,"MEAN_MOTION_DDOT":0},{"OBJECT_NAME":"GPS BIII-6  (PRN 28)","OBJECT_ID":"2023-009A","EPOCH":"2026-02-28T18:21:27.213984","MEAN_MOTION":2.00549258,"ECCENTRICITY":0.00047588,"INCLINATION":55.1093,"RA_OF_ASC_NODE":152.7809,"ARG_OF_PERICENTER":333.1698,"MEAN_ANOMALY":25.1517,"EPHEMERIS_TYPE":0,"CLASSIFICATION_TYPE":"U","NORAD_CAT_ID":55268,"ELEMENT_SET_NO":999,"REV_AT_EPOCH":2306,"BSTAR":0,"MEAN_MOTION_DOT":-2.8e-7,"MEAN_MOTION_DDOT":0},{"OBJECT_NAME":"GPS BIII-7  (PRN 01)","OBJECT_ID":"2024-242A","EPOCH":"2026-02-28T09:59:38.815872","MEAN_MOTION":2.00569355,"ECCENTRICITY":0.0015681,"INCLINATION":54.8934,"RA_OF_ASC_NODE":338.5934,"ARG_OF_PERICENTER":355.9356,"MEAN_ANOMALY":192.485,"EPHEMERIS_TYPE":0,"CLASSIFICATION_TYPE":"U","NORAD_CAT_ID":62339,"ELEMENT_SET_NO":999,"REV_AT_EPOCH":907,"BSTAR":0,"MEAN_MOTION_DOT":-1.0e-6,"MEAN_MOTION_DDOT":0},{"OBJECT_NAME":"GPS BIII-8  (PRN 21)","OBJECT_ID":"2025-116A","EPOCH":"2026-03-01T15:31:37.572960","MEAN_MOTION":2.00553196,"ECCENTRICITY":0.00084393,"INCLINATION":55.1599,"RA_OF_ASC_NODE":35.4578,"ARG_OF_PERICENTER":324.9221,"MEAN_ANOMALY":217.862,"EPHEMERIS_TYPE":0,"CLASSIFICATION_TYPE":"U","NORAD_CAT_ID":64202,"ELEMENT_SET_NO":999,"REV_AT_EPOCH":571,"BSTAR":0,"MEAN_MOTION_DOT":-6.7e-7,"MEAN_MOTION_DDOT":0},{"OBJECT_NAME":"GPS BIII-9  (PRN 20)","OBJECT_ID":"2026-017A","EPOCH":"2026-03-03T00:01:39.155232","MEAN_MOTION":2.00560913,"ECCENTRICITY":0.000147,"INCLINATION":55.0177,"RA_OF_ASC_NODE":93.0152,"ARG_OF_PERICENTER":19.4076,"MEAN_ANOMALY":340.6699,"EPHEMERIS_TYPE":0,"CLASSIFICATION_TYPE":"U","NORAD_CAT_ID":67588,"ELEMENT_SET_NO":999,"REV_AT_EPOCH":42948,"BSTAR":0,"MEAN_MOTION_DOT":1.7e-7,"MEAN_MOTION_DDOT":0}]
